{
  "type": "FeatureCollection",
  "features": [
    {
      "type": "Feature",
      "properties": {
        "norad_id": 50032,
        "name": "COSMOS 1408 DEB",
        "group": "cosmos-1408-debris",
        "lat": 76.66388855262223,
        "lon": 90.157420176566,
        "alt_km": 427.76340127602816,
        "timestamp": "2025-12-14T11:29:50.330897+00:00",
        "meta_object_name": "COSMOS 1408 DEB",
        "meta_object_id": "1982-092RU",
        "meta_epoch": "2025-12-13T16:30:42.898464",
        "meta_mean_motion": 15.45706661,
        "meta_eccentricity": 0.00153319,
        "meta_inclination": 82.5644,
        "meta_ra_of_asc_node": 57.5369,
        "meta_arg_of_pericenter": 204.9886,
        "meta_mean_anomaly": 155.0622,
        "meta_ephemeris_type": 0,
        "meta_classification_type": "U",
        "meta_norad_cat_id": 50032,
        "meta_element_set_no": 999,
        "meta_rev_at_epoch": 22618,
        "meta_bstar": 0.00013399008,
        "meta_mean_motion_dot": 6.537e-05,
        "meta_mean_motion_ddot": 0,
        "tle_line1": "1 50032U 82092RU  25347.68799651  .00006537  00000+0  13399-3 0  9991",
        "tle_line2": "2 50032  82.5644  57.5369 0015331 204.9886 155.0622 15.45706661226187"
      },
      "geometry": {
        "type": "Point",
        "coordinates": [
          90.157420176566,
          76.66388855262223
        ]
      }
    },
    {
      "type": "Feature",
      "properties": {
        "norad_id": 50058,
        "name": "COSMOS 1408 DEB",
        "group": "cosmos-1408-debris",
        "lat": 35.7240600275839,
        "lon": 72.8747676495436,
        "alt_km": 366.84300643773895,
        "timestamp": "2025-12-14T11:29:50.330918+00:00",
        "meta_object_name": "COSMOS 1408 DEB",
        "meta_object_id": "1982-092SW",
        "meta_epoch": "2025-12-13T06:10:19.981344",
        "meta_mean_motion": 15.64148339,
        "meta_eccentricity": 0.00162595,
        "meta_inclination": 82.6137,
        "meta_ra_of_asc_node": 68.8001,
        "meta_arg_of_pericenter": 96.5116,
        "meta_mean_anomaly": 263.7995,
        "meta_ephemeris_type": 0,
        "meta_classification_type": "U",
        "meta_norad_cat_id": 50058,
        "meta_element_set_no": 999,
        "meta_rev_at_epoch": 22812,
        "meta_bstar": 0.00050124618,
        "meta_mean_motion_dot": 0.00048053,
        "meta_mean_motion_ddot": 0,
        "tle_line1": "1 50058U 82092SW  25347.25717571  .00048053  00000+0  50125-3 0  9990",
        "tle_line2": "2 50058  82.6137  68.8001 0016259  96.5116 263.7995 15.64148339228121"
      },
      "geometry": {
        "type": "Point",
        "coordinates": [
          72.8747676495436,
          35.7240600275839
        ]
      }
    },
    {
      "type": "Feature",
      "properties": {
        "norad_id": 50404,
        "name": "COSMOS 1408 DEB",
        "group": "cosmos-1408-debris",
        "lat": -12.60198361961906,
        "lon": 35.00752425945899,
        "alt_km": 410.2016680520037,
        "timestamp": "2025-12-14T11:29:50.330931+00:00",
        "meta_object_name": "COSMOS 1408 DEB",
        "meta_object_id": "1982-092ADS",
        "meta_epoch": "2025-12-13T15:36:46.976544",
        "meta_mean_motion": 15.13985061,
        "meta_eccentricity": 0.01712289,
        "meta_inclination": 82.2035,
        "meta_ra_of_asc_node": 214.1008,
        "meta_arg_of_pericenter": 195.758,
        "meta_mean_anomaly": 163.8287,
        "meta_ephemeris_type": 0,
        "meta_classification_type": "U",
        "meta_norad_cat_id": 50404,
        "meta_element_set_no": 999,
        "meta_rev_at_epoch": 21207,
        "meta_bstar": 0.0029876166,
        "meta_mean_motion_dot": 0.00078948,
        "meta_mean_motion_ddot": 0,
        "tle_line1": "1 50404U 82092ADS 25347.65054371  .00078948  00000+0  29876-2 0  9995",
        "tle_line2": "2 50404  82.2035 214.1008 0171228 195.7580 163.8287 15.13985061212073"
      },
      "geometry": {
        "type": "Point",
        "coordinates": [
          35.00752425945899,
          -12.60198361961906
        ]
      }
    },
    {
      "type": "Feature",
      "properties": {
        "norad_id": 50621,
        "name": "COSMOS 1408 DEB",
        "group": "cosmos-1408-debris",
        "lat": 5.655996469480693,
        "lon": 73.10969312450027,
        "alt_km": 414.3229867378841,
        "timestamp": "2025-12-14T11:29:50.330943+00:00",
        "meta_object_name": "COSMOS 1408 DEB",
        "meta_object_id": "1982-092ALR",
        "meta_epoch": "2025-12-13T12:19:56.887968",
        "meta_mean_motion": 15.56719842,
        "meta_eccentricity": 0.00288915,
        "meta_inclination": 82.5702,
        "meta_ra_of_asc_node": 73.3741,
        "meta_arg_of_pericenter": 149.625,
        "meta_mean_anomaly": 210.6687,
        "meta_ephemeris_type": 0,
        "meta_classification_type": "U",
        "meta_norad_cat_id": 50621,
        "meta_element_set_no": 999,
        "meta_rev_at_epoch": 22262,
        "meta_bstar": 0.0005541649,
        "meta_mean_motion_dot": 0.00040495,
        "meta_mean_motion_ddot": 0,
        "tle_line1": "1 50621U 82092ALR 25347.51385287  .00040495  00000+0  55416-3 0  9990",
        "tle_line2": "2 50621  82.5702  73.3741 0028891 149.6250 210.6687 15.56719842222622"
      },
      "geometry": {
        "type": "Point",
        "coordinates": [
          73.10969312450027,
          5.655996469480693
        ]
      }
    }
  ]
}